STARLINK-1451
1 45668U 20035M   26061.13440478  .00024117  00000+0  14970-2 0  9992
2 45668  53.0526 100.1612 0001336 351.8875   8.2094 15.09594051317602
